[{"OBJECT_NAME":"STARLINK-5536","OBJECT_ID":"2023-088Q","EPOCH":"2026-03-09T22:00:01.999584","MEAN_MOTION":15.07188114,"ECCENTRICITY":8.274e-5,"INCLINATION":43.001,"RA_OF_ASC_NODE":92.8733,"ARG_OF_PERICENTER":302.3709,"MEAN_ANOMALY":208.435,"EPHEMERIS_TYPE":0,"CLASSIFICATION_TYPE":"U","NORAD_CAT_ID":57062,"ELEMENT_SET_NO":999,"REV_AT_EPOCH":573,"BSTAR":0.003327946,"MEAN_MOTION_DOT":0.00051092,"MEAN_MOTION_DDOT":0},{"OBJECT_NAME":"OBJECT C","OBJECT_ID":"2025-013C","EPOCH":"2026-03-09T23:45:12.010176","MEAN_MOTION":15.10546453,"ECCENTRICITY":0.00141064,"INCLINATION":97.6424,"RA_OF_ASC_NODE":238.1264,"ARG_OF_PERICENTER":358.7826,"MEAN_ANOMALY":1.3366,"EPHEMERIS_TYPE":0,"CLASSIFICATION_TYPE":"U","NORAD_CAT_ID":62731,"ELEMENT_SET_NO":999,"REV_AT_EPOCH":6235,"BSTAR":0.00030324361,"MEAN_MOTION_DOT":4.947e-5,"MEAN_MOTION_DDOT":0}]
